start=new Date('2021-09-01T00:00:00.000Z').valueOf();
sats=[{"TLE_LINE1":"1 47550U 21009C   21243.71421944  .00001256  00000-0  10320-3 0  9990","ELEMENT_SET_NO":"999","LAUNCH_DATE":"2021-02-04","PERIAPSIS":"546.332","EPOCH":"2021-08-31T17:08:28.559616","TLE_LINE2":"2 47550  53.0558 213.1210 0001261  70.4778 289.6347 15.06402859 32231","OBJECT_NAME":"STARLINK-1909","DECAY_DATE":null,"OBJECT_TYPE":"PAYLOAD","GP_ID":"183841755","ECCENTRICITY":"0.00012610","APOAPSIS":"548.078","MEAN_ELEMENT_THEORY":"SGP4","ARG_OF_PERICENTER":"70.4778","INCLINATION":"53.0558","REF_FRAME":"TEME","MEAN_ANOMALY":"289.6347","MEAN_MOTION_DOT":"0.00001256","FILE":"3106454","COUNTRY_CODE":"US","EPHEMERIS_TYPE":"0","RA_OF_ASC_NODE":"213.1210","MEAN_MOTION_DDOT":"0.0000000000000","TIME_SYSTEM":"UTC","MEAN_MOTION":"15.06402859","SEMIMAJOR_AXIS":"6925.340","BSTAR":"0.00010320000000","REV_AT_EPOCH":"3223","SITE":"AFETR","NORAD_CAT_ID":"47550","PERIOD":"95.592","RCS_SIZE":"LARGE","OBJECT_ID":"2021-009C","CENTER_NAME":"EARTH","CLASSIFICATION_TYPE":"U"},{"COUNTRY_CODE":"US","FILE":"3106454","MEAN_ANOMALY":"333.1288","MEAN_MOTION_DOT":"0.00000830","RA_OF_ASC_NODE":"233.1478","EPHEMERIS_TYPE":"0","APOAPSIS":"547.787","ECCENTRICITY":"0.00008420","GP_ID":"183842005","REF_FRAME":"TEME","INCLINATION":"53.0545","ARG_OF_PERICENTER":"26.9745","MEAN_ELEMENT_THEORY":"SGP4","OBJECT_NAME":"STARLINK-1938","OBJECT_TYPE":"PAYLOAD","DECAY_DATE":null,"EPOCH":"2021-08-31T17:00:30.555936","PERIAPSIS":"546.621","LAUNCH_DATE":"2021-02-04","ELEMENT_SET_NO":"999","TLE_LINE1":"1 47551U 21009D   21243.70868699  .00000830  00000-0  74585-4 0  9993","TLE_LINE2":"2 47551  53.0545 233.1478 0000842  26.9745 333.1288 15.06403102 31959","CLASSIFICATION_TYPE":"U","CENTER_NAME":"EARTH","OBJECT_ID":"2021-009D","REV_AT_EPOCH":"3195","SITE":"AFETR","PERIOD":"95.592","RCS_SIZE":"LARGE","NORAD_CAT_ID":"47551","SEMIMAJOR_AXIS":"6925.339","MEAN_MOTION":"15.06403102","TIME_SYSTEM":"UTC","MEAN_MOTION_DDOT":"0.0000000000000","BSTAR":"0.00007458500000"},{"OBJECT_ID":"2021-009E","CENTER_NAME":"EARTH","CLASSIFICATION_TYPE":"U","MEAN_MOTION":"15.06395525","SEMIMAJOR_AXIS":"6925.362","MEAN_MOTION_DDOT":"0.0000000000000","TIME_SYSTEM":"UTC","BSTAR":"0.00008222000000","REV_AT_EPOCH":"3208","SITE":"AFETR","RCS_SIZE":"LARGE","PERIOD":"95.592","NORAD_CAT_ID":"47552","ECCENTRICITY":"0.00007250","APOAPSIS":"547.729","GP_ID":"183842757","INCLINATION":"53.0557","REF_FRAME":"TEME","MEAN_ELEMENT_THEORY":"SGP4","ARG_OF_PERICENTER":"27.7745","FILE":"3106454","COUNTRY_CODE":"US","MEAN_ANOMALY":"332.3283","MEAN_MOTION_DOT":"0.00000944","RA_OF_ASC_NODE":"223.4356","EPHEMERIS_TYPE":"0","PERIAPSIS":"546.725","EPOCH":"2021-08-31T15:31:36.264864","TLE_LINE1":"1 47552U 21009E   21243.64694751  .00000944  00000-0  82220-4 0  9994","ELEMENT_SET_NO":"999","LAUNCH_DATE":"2021-02-04","TLE_LINE2":"2 47552  53.0557 223.4356 0000725  27.7745 332.3283 15.06395525 32089","OBJECT_NAME":"STARLINK-1940","DECAY_DATE":null,"OBJECT_TYPE":"PAYLOAD"},{"OBJECT_TYPE":"PAYLOAD","DECAY_DATE":null,"OBJECT_NAME":"STARLINK-1951","TLE_LINE2":"2 47553  53.0550 224.3990 0007763  87.8547 272.3331 15.06408309 32052","LAUNCH_DATE":"2021-02-04","ELEMENT_SET_NO":"999","TLE_LINE1":"1 47553U 21009F   21243.43319553  .00000602  00000-0  59440-4 0  9995","EPOCH":"2021-08-31T10:23:48.093792","PERIAPSIS":"541.812","EPHEMERIS_TYPE":"0","RA_OF_ASC_NODE":"224.3990","MEAN_ANOMALY":"272.3331","MEAN_MOTION_DOT":"0.00000602","COUNTRY_CODE":"US","FILE":"3106313","MEAN_ELEMENT_THEORY":"SGP4","ARG_OF_PERICENTER":"87.8547","REF_FRAME":"TEME","INCLINATION":"53.0550","GP_ID":"183814933","APOAPSIS":"552.564","ECCENTRICITY":"0.00077630","NORAD_CAT_ID":"47553","PERIOD":"95.592","RCS_SIZE":"LARGE","SITE":"AFETR","REV_AT_EPOCH":"3205","BSTAR":"0.00005944000000","TIME_SYSTEM":"UTC","MEAN_MOTION_DDOT":"0.0000000000000","SEMIMAJOR_AXIS":"6925.323","MEAN_MOTION":"15.06408309","CLASSIFICATION_TYPE":"U","CENTER_NAME":"EARTH","OBJECT_ID":"2021-009F"},{"RA_OF_ASC_NODE":"243.1012","EPHEMERIS_TYPE":"0","FILE":"3106454","COUNTRY_CODE":"US","MEAN_ANOMALY":"118.5639","MEAN_MOTION_DOT":"0.00000629","REF_FRAME":"TEME","INCLINATION":"53.0549","ARG_OF_PERICENTER":"241.4846","MEAN_ELEMENT_THEORY":"SGP4","APOAPSIS":"550.666","ECCENTRICITY":"0.00049990","GP_ID":"183841256","OBJECT_TYPE":"PAYLOAD","DECAY_DATE":null,"OBJECT_NAME":"STARLINK-1953","TLE_LINE2":"2 47554  53.0549 243.1012 0004999 241.4846 118.5639 15.06403273 31813","EPOCH":"2021-08-31T17:15:06.303744","PERIAPSIS":"543.742","ELEMENT_SET_NO":"999","LAUNCH_DATE":"2021-02-04","TLE_LINE1":"1 47554U 21009G   21243.71882296  .00000629  00000-0  61181-4 0  9990","CLASSIFICATION_TYPE":"U","CENTER_NAME":"EARTH","OBJECT_ID":"2021-009G","RCS_SIZE":"LARGE","PERIOD":"95.592","NORAD_CAT_ID":"47554","SITE":"AFETR","REV_AT_EPOCH":"3181","BSTAR":"0.00006118100000","SEMIMAJOR_AXIS":"6925.339","MEAN_MOTION":"15.06403273","TIME_SYSTEM":"UTC","MEAN_MOTION_DDOT":"0.0000000000000"},{"INCLINATION":"53.0548","REF_FRAME":"TEME","MEAN_ELEMENT_THEORY":"SGP4","ARG_OF_PERICENTER":"36.2205","ECCENTRICITY":"0.00007650","APOAPSIS":"547.705","GP_ID":"183841506","RA_OF_ASC_NODE":"232.3425","EPHEMERIS_TYPE":"0","COUNTRY_CODE":"US","FILE":"3106454","MEAN_ANOMALY":"323.8836","MEAN_MOTION_DOT":"0.00001757","TLE_LINE2":"2 47555  53.0548 232.3425 0000765  36.2205 323.8836 15.06412393 31988","PERIAPSIS":"546.646","EPOCH":"2021-08-31T21:25:54.317856","TLE_LINE1":"1 47555U 21009H   21243.89298979  .00001757  00000-0  13674-3 0  9995","ELEMENT_SET_NO":"999","LAUNCH_DATE":"2021-02-04","DECAY_DATE":null,"OBJECT_TYPE":"PAYLOAD","OBJECT_NAME":"STARLINK-1954","OBJECT_ID":"2021-009H","CENTER_NAME":"EARTH","CLASSIFICATION_TYPE":"U","BSTAR":"0.00013674000000","MEAN_MOTION":"15.06412393","SEMIMAJOR_AXIS":"6925.311","MEAN_MOTION_DDOT":"0.0000000000000","TIME_SYSTEM":"UTC","PERIOD":"95.591","RCS_SIZE":"LARGE","NORAD_CAT_ID":"47555","SITE":"AFETR","REV_AT_EPOCH":"3198"},{"MEAN_MOTION":"15.06398519","SEMIMAJOR_AXIS":"6925.353","MEAN_MOTION_DDOT":"0.0000000000000","TIME_SYSTEM":"UTC","BSTAR":"0.00007914900000","REV_AT_EPOCH":"3167","SITE":"AFETR","RCS_SIZE":"LARGE","PERIOD":"95.592","NORAD_CAT_ID":"47556","OBJECT_ID":"2021-009J","CENTER_NAME":"EARTH","CLASSIFICATION_TYPE":"U","PERIAPSIS":"546.798","EPOCH":"2021-08-31T17:29:42.042912","TLE_LINE1":"1 47556U 21009J   21243.72895883  .00000898  00000-0  79149-4 0  9990","LAUNCH_DATE":"2021-02-04","ELEMENT_SET_NO":"999","TLE_LINE2":"2 47556  53.0541 253.0569 0000606 348.2546  11.8428 15.06398519 31679","OBJECT_NAME":"STARLINK-1955","DECAY_DATE":null,"OBJECT_TYPE":"PAYLOAD","ECCENTRICITY":"0.00006060","APOAPSIS":"547.638","GP_ID":"183842258","INCLINATION":"53.0541","REF_FRAME":"TEME","ARG_OF_PERICENTER":"348.2546","MEAN_ELEMENT_THEORY":"SGP4","COUNTRY_CODE":"US","FILE":"3106454","MEAN_MOTION_DOT":"0.00000898","MEAN_ANOMALY":"11.8428","RA_OF_ASC_NODE":"253.0569","EPHEMERIS_TYPE":"0"},{"ELEMENT_SET_NO":"999","LAUNCH_DATE":"2021-02-04","TLE_LINE1":"1 47557U 21009K   21243.42673426 -.00000610  00000-0 -22058-4 0  9996","EPOCH":"2021-08-31T10:14:29.840064","PERIAPSIS":"546.566","TLE_LINE2":"2 47557  53.0541 254.4328 0000942  70.4455 289.6636 15.06398475 31637","OBJECT_NAME":"STARLINK-1956","OBJECT_TYPE":"PAYLOAD","DECAY_DATE":null,"GP_ID":"183815433","APOAPSIS":"547.871","ECCENTRICITY":"0.00009420","ARG_OF_PERICENTER":"70.4455","MEAN_ELEMENT_THEORY":"SGP4","REF_FRAME":"TEME","INCLINATION":"53.0541","MEAN_ANOMALY":"289.6636","MEAN_MOTION_DOT":"-0.00000610","FILE":"3106313","COUNTRY_CODE":"US","EPHEMERIS_TYPE":"0","RA_OF_ASC_NODE":"254.4328","TIME_SYSTEM":"UTC","MEAN_MOTION_DDOT":"0.0000000000000","SEMIMAJOR_AXIS":"6925.353","MEAN_MOTION":"15.06398475","BSTAR":"-0.00002205800000","SITE":"AFETR","REV_AT_EPOCH":"3163","NORAD_CAT_ID":"47557","RCS_SIZE":"LARGE","PERIOD":"95.592","CENTER_NAME":"EARTH","OBJECT_ID":"2021-009K","CLASSIFICATION_TYPE":"U"},{"MEAN_ELEMENT_THEORY":"SGP4","ARG_OF_PERICENTER":"22.6418","INCLINATION":"53.0531","REF_FRAME":"TEME","GP_ID":"183841756","ECCENTRICITY":"0.00011280","APOAPSIS":"547.989","EPHEMERIS_TYPE":"0","RA_OF_ASC_NODE":"223.3160","MEAN_MOTION_DOT":"-0.00000324","MEAN_ANOMALY":"337.4621","COUNTRY_CODE":"US","FILE":"3106454","TLE_LINE2":"2 47558  53.0531 223.3160 0001128  22.6418 337.4621 15.06401771 32081","TLE_LINE1":"1 47558U 21009L   21243.67276286 -.00000324  00000-0 -28709-5 0  9999","ELEMENT_SET_NO":"999","LAUNCH_DATE":"2021-02-04","PERIAPSIS":"546.427","EPOCH":"2021-08-31T16:08:46.711104","DECAY_DATE":null,"OBJECT_TYPE":"PAYLOAD","OBJECT_NAME":"STARLINK-1957","OBJECT_ID":"2021-009L","CENTER_NAME":"EARTH","CLASSIFICATION_TYPE":"U","BSTAR":"-0.00000287090000","MEAN_MOTION_DDOT":"0.0000000000000","TIME_SYSTEM":"UTC","MEAN_MOTION":"15.06401771","SEMIMAJOR_AXIS":"6925.343","NORAD_CAT_ID":"47558","PERIOD":"95.592","RCS_SIZE":"LARGE","SITE":"AFETR","REV_AT_EPOCH":"3208"},{"OBJECT_ID":"2021-009M","CENTER_NAME":"EARTH","CLASSIFICATION_TYPE":"U","BSTAR":"0.00009440200000","MEAN_MOTION_DDOT":"0.0000000000000","TIME_SYSTEM":"UTC","MEAN_MOTION":"15.06401732","SEMIMAJOR_AXIS":"6925.343","NORAD_CAT_ID":"47559","RCS_SIZE":"LARGE","PERIOD":"95.592","REV_AT_EPOCH":"3222","SITE":"AFETR","MEAN_ELEMENT_THEORY":"SGP4","ARG_OF_PERICENTER":"43.7762","INCLINATION":"53.0556","REF_FRAME":"TEME","GP_ID":"183842006","ECCENTRICITY":"0.00014200","APOAPSIS":"548.192","EPHEMERIS_TYPE":"0","RA_OF_ASC_NODE":"213.4796","MEAN_MOTION_DOT":"0.00001125","MEAN_ANOMALY":"316.3339","COUNTRY_CODE":"US","FILE":"3106454","TLE_LINE2":"2 47559  53.0556 213.4796 0001420  43.7762 316.3339 15.06401732 32220","TLE_LINE1":"1 47559U 21009M   21243.63680991  .00001125  00000-0  94402-4 0  9998","LAUNCH_DATE":"2021-02-04","ELEMENT_SET_NO":"999","PERIAPSIS":"546.225","EPOCH":"2021-08-31T15:17:00.376224","DECAY_DATE":null,"OBJECT_TYPE":"PAYLOAD","OBJECT_NAME":"STARLINK-1958"}];
